[{"OBJECT_NAME":"ONEWEB-0101","OBJECT_ID":"2021-025H","EPOCH":"2026-05-15T01:58:44.891328","MEAN_MOTION":13.1346838,"ECCENTRICITY":0.0001661,"INCLINATION":87.8941,"RA_OF_ASC_NODE":326.8231,"ARG_OF_PERICENTER":87.2339,"MEAN_ANOMALY":272.898,"EPHEMERIS_TYPE":0,"CLASSIFICATION_TYPE":"U","NORAD_CAT_ID":48049,"ELEMENT_SET_NO":999,"REV_AT_EPOCH":24915,"BSTAR":-0.00025394,"MEAN_MOTION_DOT":-8e-07,"MEAN_MOTION_DDOT":0.0},{"OBJECT_NAME":"ONEWEB-0113","OBJECT_ID":"2021-025J","EPOCH":"2026-05-15T00:59:34.720512","MEAN_MOTION":13.13896813,"ECCENTRICITY":0.0001859,"INCLINATION":87.8946,"RA_OF_ASC_NODE":326.7445,"ARG_OF_PERICENTER":90.5164,"MEAN_ANOMALY":269.6179,"EPHEMERIS_TYPE":0,"CLASSIFICATION_TYPE":"U","NORAD_CAT_ID":48050,"ELEMENT_SET_NO":999,"REV_AT_EPOCH":24925,"BSTAR":0.00035715000000000003,"MEAN_MOTION_DOT":1.44e-06,"MEAN_MOTION_DDOT":0.0},{"OBJECT_NAME":"ONEWEB-0112","OBJECT_ID":"2021-025K","EPOCH":"2026-05-15T01:10:00.877728","MEAN_MOTION":13.13471368,"ECCENTRICITY":0.0001547,"INCLINATION":87.8951,"RA_OF_ASC_NODE":326.8086,"ARG_OF_PERICENTER":86.623,"MEAN_ANOMALY":273.5076,"EPHEMERIS_TYPE":0,"CLASSIFICATION_TYPE":"U","NORAD_CAT_ID":48051,"ELEMENT_SET_NO":999,"REV_AT_EPOCH":24924,"BSTAR":0.00072404,"MEAN_MOTION_DOT":2.77e-06,"MEAN_MOTION_DDOT":0.0},{"OBJECT_NAME":"ONEWEB-0156","OBJECT_ID":"2021-025L","EPOCH":"2026-05-15T01:22:11.915904","MEAN_MOTION":13.13471293,"ECCENTRICITY":0.000172,"INCLINATION":87.8952,"RA_OF_ASC_NODE":326.8174,"ARG_OF_PERICENTER":93.5848,"MEAN_ANOMALY":266.5478,"EPHEMERIS_TYPE":0,"CLASSIFICATION_TYPE":"U","NORAD_CAT_ID":48052,"ELEMENT_SET_NO":999,"REV_AT_EPOCH":24922,"BSTAR":0.00095751,"MEAN_MOTION_DOT":3.62e-06,"MEAN_MOTION_DDOT":0.0},{"OBJECT_NAME":"ONEWEB-0161","OBJECT_ID":"2021-025M","EPOCH":"2026-05-15T00:45:36.872928","MEAN_MOTION":13.13472294,"ECCENTRICITY":0.0001653,"INCLINATION":87.8941,"RA_OF_ASC_NODE":326.8256,"ARG_OF_PERICENTER":94.1785,"MEAN_ANOMALY":265.9533,"EPHEMERIS_TYPE":0,"CLASSIFICATION_TYPE":"U","NORAD_CAT_ID":48053,"ELEMENT_SET_NO":999,"REV_AT_EPOCH":24915,"BSTAR":-0.00030974,"MEAN_MOTION_DOT":-1e-06,"MEAN_MOTION_DDOT":0.0},{"OBJECT_NAME":"ONEWEB-0158","OBJECT_ID":"2021-025N","EPOCH":"2026-05-15T01:36:48.604608","MEAN_MOTION":13.13470963,"ECCENTRICITY":0.000192,"INCLINATION":87.895,"RA_OF_ASC_NODE":326.8145,"ARG_OF_PERICENTER":80.255,"MEAN_ANOMALY":279.8796,"EPHEMERIS_TYPE":0,"CLASSIFICATION_TYPE":"U","NORAD_CAT_ID":48054,"ELEMENT_SET_NO":999,"REV_AT_EPOCH":24928,"BSTAR":0.00066556,"MEAN_MOTION_DOT":2.56e-06,"MEAN_MOTION_DDOT":0.0},{"OBJECT_NAME":"ONEWEB-0157","OBJECT_ID":"2021-025P","EPOCH":"2026-05-15T02:13:22.049184","MEAN_MOTION":13.13468514,"ECCENTRICITY":0.0001472,"INCLINATION":87.8952,"RA_OF_ASC_NODE":326.8146,"ARG_OF_PERICENTER":96.2681,"MEAN_ANOMALY":263.8616,"EPHEMERIS_TYPE":0,"CLASSIFICATION_TYPE":"U","NORAD_CAT_ID":48055,"ELEMENT_SET_NO":999,"REV_AT_EPOCH":24922,"BSTAR":-0.00077574,"MEAN_MOTION_DOT":-2.71e-06,"MEAN_MOTION_DDOT":0.0},{"OBJECT_NAME":"ONEWEB-0162","OBJECT_ID":"2021-025Q","EPOCH":"2026-05-15T01:39:02.975616","MEAN_MOTION":13.13471635,"ECCENTRICITY":0.0001847,"INCLINATION":87.8946,"RA_OF_ASC_NODE":326.8216,"ARG_OF_PERICENTER":94.1812,"MEAN_ANOMALY":265.9528,"EPHEMERIS_TYPE":0,"CLASSIFICATION_TYPE":"U","NORAD_CAT_ID":48056,"ELEMENT_SET_NO":999,"REV_AT_EPOCH":24919,"BSTAR":0.0006712,"MEAN_MOTION_DOT":2.58e-06,"MEAN_MOTION_DDOT":0.0},{"OBJECT_NAME":"ONEWEB-0155","OBJECT_ID":"2021-025R","EPOCH":"2026-05-15T01:48:59.743008","MEAN_MOTION":13.13471102,"ECCENTRICITY":0.0001573,"INCLINATION":87.8948,"RA_OF_ASC_NODE":326.8163,"ARG_OF_PERICENTER":86.9236,"MEAN_ANOMALY":273.2074,"EPHEMERIS_TYPE":0,"CLASSIFICATION_TYPE":"U","NORAD_CAT_ID":48057,"ELEMENT_SET_NO":999,"REV_AT_EPOCH":24933,"BSTAR":0.00033608,"MEAN_MOTION_DOT":1.35e-06,"MEAN_MOTION_DDOT":0.0},{"OBJECT_NAME":"ONEWEB-0149","OBJECT_ID":"2021-025S","EPOCH":"2026-05-15T02:20:37.804128","MEAN_MOTION":13.13513933,"ECCENTRICITY":0.000138,"INCLINATION":87.8952,"RA_OF_ASC_NODE":326.8138,"ARG_OF_PERICENTER":124.2696,"MEAN_ANOMALY":235.8565,"EPHEMERIS_TYPE":0,"CLASSIFICATION_TYPE":"U","NORAD_CAT_ID":48058,"ELEMENT_SET_NO":999,"REV_AT_EPOCH":24914,"BSTAR":0.014596000000000001,"MEAN_MOTION_DOT":5.349e-05,"MEAN_MOTION_DDOT":0.0},{"OBJECT_NAME":"ONEWEB-0148","OBJECT_ID":"2021-025T","EPOCH":"2026-05-15T01:27:03.665376","MEAN_MOTION":13.13471643,"ECCENTRICITY":0.0001953,"INCLINATION":87.8944,"RA_OF_ASC_NODE":326.8308,"ARG_OF_PERICENTER":106.1675,"MEAN_ANOMALY":253.967,"EPHEMERIS_TYPE":0,"CLASSIFICATION_TYPE":"U","NORAD_CAT_ID":48059,"ELEMENT_SET_NO":999,"REV_AT_EPOCH":24926,"BSTAR":0.0010093,"MEAN_MOTION_DOT":3.81e-06,"MEAN_MOTION_DDOT":0.0},{"OBJECT_NAME":"ONEWEB-0160","OBJECT_ID":"2021-025U","EPOCH":"2026-05-15T01:51:27.473184","MEAN_MOTION":13.1347029,"ECCENTRICITY":0.0002402,"INCLINATION":87.8946,"RA_OF_ASC_NODE":326.8234,"ARG_OF_PERICENTER":77.3937,"MEAN_ANOMALY":282.746,"EPHEMERIS_TYPE":0,"CLASSIFICATION_TYPE":"U","NORAD_CAT_ID":48060,"ELEMENT_SET_NO":999,"REV_AT_EPOCH":24921,"BSTAR":0.00030102000000000004,"MEAN_MOTION_DOT":1.23e-06,"MEAN_MOTION_DDOT":0.0},{"OBJECT_NAME":"ONEWEB-0163","OBJECT_ID":"2021-025V","EPOCH":"2026-05-15T01:29:30.093504","MEAN_MOTION":13.13468553,"ECCENTRICITY":0.0001509,"INCLINATION":87.8943,"RA_OF_ASC_NODE":326.8196,"ARG_OF_PERICENTER":93.5927,"MEAN_ANOMALY":266.5375,"EPHEMERIS_TYPE":0,"CLASSIFICATION_TYPE":"U","NORAD_CAT_ID":48061,"ELEMENT_SET_NO":999,"REV_AT_EPOCH":24933,"BSTAR":0.00079115,"MEAN_MOTION_DOT":3.02e-06,"MEAN_MOTION_DDOT":0.0},{"OBJECT_NAME":"ONEWEB-0159","OBJECT_ID":"2021-025W","EPOCH":"2026-05-15T01:17:18.742560","MEAN_MOTION":13.13469154,"ECCENTRICITY":0.0001528,"INCLINATION":87.8953,"RA_OF_ASC_NODE":326.8134,"ARG_OF_PERICENTER":91.5999,"MEAN_ANOMALY":268.5306,"EPHEMERIS_TYPE":0,"CLASSIFICATION_TYPE":"U","NORAD_CAT_ID":48062,"ELEMENT_SET_NO":999,"REV_AT_EPOCH":24925,"BSTAR":0.00088303,"MEAN_MOTION_DOT":3.35e-06,"MEAN_MOTION_DDOT":0.0},{"OBJECT_NAME":"ONEWEB-0164","OBJECT_ID":"2021-025X","EPOCH":"2026-05-15T00:50:29.813856","MEAN_MOTION":13.13472164,"ECCENTRICITY":0.0001832,"INCLINATION":87.8951,"RA_OF_ASC_NODE":326.8233,"ARG_OF_PERICENTER":87.0494,"MEAN_ANOMALY":273.0845,"EPHEMERIS_TYPE":0,"CLASSIFICATION_TYPE":"U","NORAD_CAT_ID":48063,"ELEMENT_SET_NO":999,"REV_AT_EPOCH":24923,"BSTAR":-8.9782e-05,"MEAN_MOTION_DOT":-2e-07,"MEAN_MOTION_DDOT":0.0},{"OBJECT_NAME":"ONEWEB-0167","OBJECT_ID":"2021-025Y","EPOCH":"2026-05-15T01:30:44.443296","MEAN_MOTION":13.13470375,"ECCENTRICITY":0.0001209,"INCLINATION":87.8943,"RA_OF_ASC_NODE":326.831,"ARG_OF_PERICENTER":74.7149,"MEAN_ANOMALY":285.4114,"EPHEMERIS_TYPE":0,"CLASSIFICATION_TYPE":"U","NORAD_CAT_ID":48064,"ELEMENT_SET_NO":999,"REV_AT_EPOCH":24922,"BSTAR":0.00089357,"MEAN_MOTION_DOT":3.39e-06,"MEAN_MOTION_DDOT":0.0},{"OBJECT_NAME":"ONEWEB-0166","OBJECT_ID":"2021-025Z","EPOCH":"2026-05-15T02:03:37.955808","MEAN_MOTION":13.1346913,"ECCENTRICITY":0.0001802,"INCLINATION":87.8951,"RA_OF_ASC_NODE":326.7944,"ARG_OF_PERICENTER":95.5736,"MEAN_ANOMALY":264.5599,"EPHEMERIS_TYPE":0,"CLASSIFICATION_TYPE":"U","NORAD_CAT_ID":48065,"ELEMENT_SET_NO":999,"REV_AT_EPOCH":24930,"BSTAR":-0.00046449,"MEAN_MOTION_DOT":-1.57e-06,"MEAN_MOTION_DDOT":0.0},{"OBJECT_NAME":"ONEWEB-0151","OBJECT_ID":"2021-025AA","EPOCH":"2026-05-15T02:06:03.262464","MEAN_MOTION":13.13471044,"ECCENTRICITY":0.0001699,"INCLINATION":87.8941,"RA_OF_ASC_NODE":326.8143,"ARG_OF_PERICENTER":85.1447,"MEAN_ANOMALY":274.9876,"EPHEMERIS_TYPE":0,"CLASSIFICATION_TYPE":"U","NORAD_CAT_ID":48066,"ELEMENT_SET_NO":999,"REV_AT_EPOCH":24924,"BSTAR":-0.00049974,"MEAN_MOTION_DOT":-1.7e-06,"MEAN_MOTION_DDOT":0.0},{"OBJECT_NAME":"ONEWEB-0170","OBJECT_ID":"2021-025AB","EPOCH":"2026-05-15T02:18:15.006528","MEAN_MOTION":13.13471631,"ECCENTRICITY":0.0001895,"INCLINATION":87.8943,"RA_OF_ASC_NODE":326.8145,"ARG_OF_PERICENTER":74.9737,"MEAN_ANOMALY":285.1602,"EPHEMERIS_TYPE":0,"CLASSIFICATION_TYPE":"U","NORAD_CAT_ID":48067,"ELEMENT_SET_NO":999,"REV_AT_EPOCH":24920,"BSTAR":-0.00071223,"MEAN_MOTION_DOT":-2.47e-06,"MEAN_MOTION_DDOT":0.0},{"OBJECT_NAME":"ONEWEB-0168","OBJECT_ID":"2021-025AC","EPOCH":"2026-05-15T01:56:18.491712","MEAN_MOTION":13.13471148,"ECCENTRICITY":0.0001624,"INCLINATION":87.8952,"RA_OF_ASC_NODE":326.8144,"ARG_OF_PERICENTER":92.8912,"MEAN_ANOMALY":267.2403,"EPHEMERIS_TYPE":0,"CLASSIFICATION_TYPE":"U","NORAD_CAT_ID":48068,"ELEMENT_SET_NO":999,"REV_AT_EPOCH":24921,"BSTAR":-5.1235e-05,"MEAN_MOTION_DOT":-6e-08,"MEAN_MOTION_DDOT":0.0},{"OBJECT_NAME":"ONEWEB-0173","OBJECT_ID":"2021-025AD","EPOCH":"2026-05-14T23:54:25.935264","MEAN_MOTION":13.1347057,"ECCENTRICITY":0.0001385,"INCLINATION":87.8946,"RA_OF_ASC_NODE":326.835,"ARG_OF_PERICENTER":90.4738,"MEAN_ANOMALY":269.655,"EPHEMERIS_TYPE":0,"CLASSIFICATION_TYPE":"U","NORAD_CAT_ID":48069,"ELEMENT_SET_NO":999,"REV_AT_EPOCH":24944,"BSTAR":0.00046671,"MEAN_MOTION_DOT":1.83e-06,"MEAN_MOTION_DDOT":0.0},{"OBJECT_NAME":"ONEWEB-0171","OBJECT_ID":"2021-025AE","EPOCH":"2026-05-15T00:48:02.665152","MEAN_MOTION":13.13470496,"ECCENTRICITY":0.0001757,"INCLINATION":87.8941,"RA_OF_ASC_NODE":326.8364,"ARG_OF_PERICENTER":86.885,"MEAN_ANOMALY":273.248,"EPHEMERIS_TYPE":0,"CLASSIFICATION_TYPE":"U","NORAD_CAT_ID":48070,"ELEMENT_SET_NO":999,"REV_AT_EPOCH":24926,"BSTAR":-0.0010965,"MEAN_MOTION_DOT":-3.88e-06,"MEAN_MOTION_DDOT":0.0},{"OBJECT_NAME":"ONEWEB-0172","OBJECT_ID":"2021-025AF","EPOCH":"2026-05-15T02:08:29.865984","MEAN_MOTION":13.13468833,"ECCENTRICITY":0.0001632,"INCLINATION":87.8948,"RA_OF_ASC_NODE":326.8133,"ARG_OF_PERICENTER":86.9014,"MEAN_ANOMALY":273.2301,"EPHEMERIS_TYPE":0,"CLASSIFICATION_TYPE":"U","NORAD_CAT_ID":48071,"ELEMENT_SET_NO":999,"REV_AT_EPOCH":25016,"BSTAR":-0.00059007,"MEAN_MOTION_DOT":-2.03e-06,"MEAN_MOTION_DDOT":0.0}]